{
    "links": {
        "self": "http://www.neowsapp.com/rest/v1/neo/3647026?api_key=iIulBulltgU6a56xZRHN4H3l9WmuAYTsLGpBGhQ2"
    },
    "id": "3647026",
    "neo_reference_id": "3647026",
    "name": "(2013 RA6)",
    "designation": "2013 RA6",
    "nasa_jpl_url": "http://ssd.jpl.nasa.gov/sbdb.cgi?sstr=3647026",
    "absolute_magnitude_h": 25.0,
    "estimated_diameter": {
        "kilometers": {
            "estimated_diameter_min": 0.02658,
            "estimated_diameter_max": 0.0594346868
        },
        "meters": {
            "estimated_diameter_min": 26.58,
            "estimated_diameter_max": 59.4346868419
        },
        "miles": {
            "estimated_diameter_min": 0.0165160412,
            "estimated_diameter_max": 0.0369309908
        },
        "feet": {
            "estimated_diameter_min": 87.2047272,
            "estimated_diameter_max": 194.9956979785
        }
    },
    "is_potentially_hazardous_asteroid": false,
    "close_approach_data": [
        {
            "close_approach_date": "2013-09-14",
            "close_approach_date_full": "2013-Sep-14 22:54",
            "epoch_date_close_approach": 1379199240000,
            "relative_velocity": {
                "kilometers_per_second": "7.2109330052",
                "kilometers_per_hour": "25959.3588188",
                "miles_per_hour": "16130.1360393816"
            },
            "miss_distance": {
                "astronomical": "0.0964630691",
                "lunar": "37.5241338799",
                "kilometers": "14430669.671022817",
                "miles": "8966802.3374241946"
            },
            "orbiting_body": "Earth"
        }
    ],
    "orbital_data": {
        "orbit_id": "8",
        "orbit_determination_date": "2017-04-06 08:44:55",
        "first_observation_date": "2013-09-02",
        "last_observation_date": "2013-10-08",
        "data_arc_in_days": 36,
        "observations_used": 25,
        "orbit_uncertainty": "8",
        "minimum_orbit_intersection": ".0949707",
        "jupiter_tisserand_invariant": "2.857",
        "epoch_osculation": "2456542.5",
        "eccentricity": ".6451247021826273",
        "semi_major_axis": "3.096794023095592",
        "inclination": "3.739100572163322",
        "ascending_node_longitude": "168.2732472758615",
        "orbital_period": "1990.521656718929",
        "perihelion_distance": "1.098975701225108",
        "perihelion_argument": "189.6977851093261",
        "aphelion_distance": "5.094612344966076",
        "perihelion_time": "2456555.005705005957",
        "mean_anomaly": "357.738254297838",
        "mean_motion": ".1808571129004469",
        "equinox": "J2000",
        "orbit_class": {
            "orbit_class_type": "AMO",
            "orbit_class_description": "Near-Earth asteroid orbits similar to that of 1221 Amor",
            "orbit_class_range": "1.017 AU < q (perihelion) < 1.3 AU"
        }
    },
    "is_sentry_object": false
}